GPS BIIR-2  (PRN 13)    
1 24876C 97035A   23096.69312500 -.00000000  00000-0  00000-0 0   966
2 24876  55.5563 144.2270 0066506  51.2548  69.2349  2.00564214    14
GPS BIIR-4  (PRN 20)    
1 26360C 00025A   23096.69312500 -.00000000  00000-0  00000-0 0   969
2 26360  54.3061  66.7835 0043402 197.6963   9.9097  2.00550234    13
GPS BIIR-8  (PRN 16)    
1 27663C 03005A   23096.69312500  .00000000  00000-0  00000-0 0   966
2 27663  55.3293 261.4031 0132361  44.1155 141.6198  2.00574963    13
GPS BIIR-9  (PRN 21)    
1 27704C 03010A   23096.69312500 -.00000000  00000-0  00000-0 0   969
2 27704  55.0991  11.4509 0249549 314.7086  89.1663  2.00568327    10
GPS BIIR-11 (PRN 19)    
1 28190C 04009A   23096.69312500  .00000000  00000-0  00000-0 0   967
2 28190  55.8068 322.4447 0091006 130.7206 212.6002  2.00571007    11
GPS BIIR-13 (PRN 02)    
1 28474C 04045A   23096.69312500 -.00000000  00000-0  00000-0 0   963
2 28474  55.4244  11.7027 0200360 284.5839 267.8657  2.00563283    10
GPS BIIRM-1 (PRN 17)    
1 28874C 05038A   23096.69312500  .00000000  00000-0  00000-0 0   969
2 28874  55.8625 319.8905 0137589 279.0484  89.3540  2.00556022    16
GPS BIIRM-2 (PRN 31)    
1 29486C 06042A   23096.69312500  .00000000  00000-0  00000-0 0   965
2 29486  54.6886 197.6283 0104959  28.8449 249.6048  2.00502932    14
GPS BIIRM-3 (PRN 12)    
1 29601C 06052A   23096.69312500  .00000000  00000-0  00000-0 0   965
2 29601  55.3452 260.3543 0086904  77.3203 245.5554  2.00569073    19
GPS BIIRM-4 (PRN 15)    
1 32260C 07047A   23096.69312500 -.00000000  00000-0  00000-0 0   966
2 32260  53.4072 128.3847 0145705  67.6392  37.3666  2.00559891    15
GPS BIIRM-5 (PRN 29)    
1 32384C 07062A   23096.69312500  .00000000  00000-0  00000-0 0   969
2 32384  55.9902 320.6903 0022214 140.9911  93.7607  2.00577765    13
GPS BIIRM-6 (PRN 07)    
1 32711C 08012A   23096.69312500  .00000000  00000-0  00000-0 0   969
2 32711  54.4539 196.4958 0172232 233.9337 290.2191  2.00553684    13
GPS BIIRM-8 (PRN 05)    
1 35752C 09043A   23096.69312500 -.00000000  00000-0  00000-0 0   963
2 35752  55.3093  73.7462 0056191  63.7452 115.6557  2.00567334    18
GPS BIIF-1  (PRN 25)    
1 36585C 10022A   23096.69312500  .00000000  00000-0  00000-0 0   966
2 36585  54.6379 255.6721 0109745  59.1777 238.5110  2.00554338    14
GPS BIIF-2  (PRN 01)    
1 37753C 11036A   23096.69312500 -.00000000  00000-0  00000-0 0   961
2 37753  56.7096  17.3084 0124692  53.6610 326.1014  2.00567454    19
GPS BIIF-3  (PRN 24)    
1 38833C 12053A   23096.69312500  .00000000  00000-0  00000-0 0   960
2 38833  53.5126 191.3507 0136119  50.3557 342.5328  2.00565219    19
GPS BIIF-4  (PRN 27)    
1 39166C 13023A   23096.69312500  .00000000  00000-0  00000-0 0   968
2 39166  55.4808 316.1470 0113801  40.4107  93.6635  2.00564952    15
GPS BIIF-5  (PRN 30)    
1 39533C 14008A   23096.69312500  .00000000  00000-0  00000-0 0   960
2 39533  53.6019 196.8899 0064501 211.7729 280.5988  2.00570159    14
GPS BIIF-6  (PRN 06)    
1 39741C 14026A   23096.69312500 -.00000000  00000-0  00000-0 0   962
2 39741  56.6657  16.8318 0030450 312.4802 339.9074  2.00568074    18
GPS BIIF-7  (PRN 09)    
1 40105C 14045A   23096.69312500 -.00000000  00000-0  00000-0 0   969
2 40105  54.7662 135.0905 0021576 114.9877 110.6716  2.00567234    15
GPS BIIF-8  (PRN 03)    
1 40294C 14068A   23096.69312500 -.00000000  00000-0  00000-0 0   963
2 40294  56.0525  76.3762 0044315  55.9555 261.4657  2.00561719    19
GPS BIIF-9  (PRN 26)    
1 40534C 15013A   23096.69312500  .00000000  00000-0  00000-0 0   960
2 40534  53.5371 252.5367 0078041  24.9997 196.8486  2.00564116    10
GPS BIIF-10 (PRN 08)    
1 40730C 15033A   23096.69312500  .00000000  00000-0  00000-0 0   960
2 40730  54.9724 314.8341 0083949  12.7045  93.2817  2.00563162    19
GPS BIIF-11 (PRN 10)    
1 41019C 15062A   23096.69312500 -.00000000  00000-0  00000-0 0   964
2 41019  56.0378  76.2239 0086373 222.0335 203.6925  2.00562332    10
GPS BIIF-12 (PRN 32)    
1 41328C 16007A   23096.69312500 -.00000000  00000-0  00000-0 0   967
2 41328  54.9751 135.8326 0069936 233.8112 128.5835  2.00556998    19
GPS BIII-1  (PRN 04)    
1 43873C 18109A   23096.69312500 -.00000000  00000-0  00000-0 0   969
2 43873  55.1524 138.3153 0023940 194.0939  58.9072  2.00561506    13
GPS BIII-2  (PRN 18)    
1 44506C 19056A   23096.69312500 -.00000000  00000-0  00000-0 0   965
2 44506  55.7859  17.4075 0030550 184.6572 329.3262  2.00563228    16
GPS BIII-3  (PRN 23)    
1 45854C 20041A   23096.69312500 -.00000000  00000-0  00000-0 0   968
2 45854  55.7586  74.6800 0030820 187.5930 269.0796  2.00566266    18
GPS BIII-4  (PRN 14)    
1 46826C 20078A   23096.69312500  .00000000  00000-0  00000-0 0   967
2 46826  54.3912 258.1851 0029342 188.8868 243.6593  2.00563631    18
GPS BIII-5  (PRN 11)    
1 48859C 21054A   23096.69312500 -.00000000  00000-0  00000-0 0   961
2 48859  55.2994  19.2650 0008635 216.2753  38.7769  2.00557779    14
GPS BIII-6  (PRN 28)    
1 55268C 23009A   23096.69312500  .00000000  00000-0  00000-0 0   964
2 55268  55.0929 194.3226 0006233 100.7168 197.0057  2.00565701    18
